413P/Larson,e,15.9780,39.0207,186.0747,3.710813,0.1378798,0.42326819,33.3279,03/19.0/2022,2000,g 14.0,4.0
# From MPEC 2021-BE3
414P/STEREO,e,23.3850,257.7895,210.7231,2.794019,0.2110377,0.81161856,88.1400,03/19.0/2022,2000,g 19.0,4.0
# From MPEC 2022-CN4
415P/Tenagra,e,31.7923,160.2945,346.1801,4.114541,0.1180924,0.19468872,46.9152,03/19.0/2022,2000,g 12.0,4.0
# From MPEC 2021-L04
416P/Scotti,e,3.3613,355.8117,134.4786,4.011993,0.1226489,0.45429058,48.6454,03/19.0/2022,2000,g 15.5,4.0
# From MPEC 2021-W31
417P/NEOWISE,e,8.1258,111.2992,129.4907,3.350506,0.1607083,0.55507472,53.1444,03/19.0/2022,2000,g 16.5,4.0
# From MPEC 2021-L04
418P/LINEAR,e,5.7972,277.6566,307.1094,5.080226,0.0860755,0.66478351,13.1196,03/19.0/2022,2000,g 13.0,4.0
# From MPEC 2022-CN4
419P/PANSTARRS,e,2.8029,40.3900,187.5074,3.520582,0.1492047,0.27759184,21.2645,03/19.0/2022,2000,g 12.5,4.0
# From MPEC 2021-S45
420P/Hill,e,14.5040,173.9527,157.1046,5.528519,0.0758212,0.49563040,355.1049,03/19.0/2022,2000,g 11.5,4.0
# From MPEC 2021-W31
421P/McNaught,e,10.0796,55.3482,259.8335,5.075330,0.0862001,0.67549303,35.9618,03/19.0/2022,2000,g 14.0,4.0
# From MPEC 2022-A21
422P/Christensen,e,39.5431,36.0389,305.1564,6.321267,0.0620152,0.50876722,3.9807,03/19.0/2022,2000,g 11.0,4.0
# From MPEC 2022-A21
423P/Lemmon,e,8.3458,33.3063,80.3082,6.166014,0.0643721,0.12099558,11.6752,03/19.0/2022,2000,g  8.0,4.0
# From MPEC 2022-CN4
424P/LaSagra,e,8.6856,51.1779,312.4755,4.413859,0.1062861,0.69126233,14.7065,03/19.0/2022,2000,g 17.0,4.0
# From MPEC 2022-ED3
425P/Kowalski,e,16.4206,210.0860,200.7495,6.331009,0.0618721,0.54349171,11.1076,03/19.0/2022,2000,g 12.0,4.0
# From MPEC 2021-Y10
426P/PANSTARRS,e,17.7736,280.5221,119.1431,3.186086,0.1733077,0.16130446,265.7022,03/19.0/2022,2000,g 13.5,4.0
# From MPEC 2022-C56
428P/Gibbs,e,8.5149,299.3367,36.8201,3.484295,0.1515416,0.51949920,46.7255,03/19.0/2022,2000,g 15.0,4.0
# From MPEC 2022-ED3
429P/LINEAR-Hill,e,7.5220,322.0732,75.5372,3.550524,0.1473212,0.49127730,11.1759,03/19.0/2022,2000,g 15.5,4.0
# From MPEC 2022-CN4
430P/Scotti,e,4.4749,54.6722,94.5004,3.106854,0.1799794,0.49961552,19.2181,03/19.0/2022,2000,g 16.5,4.0
# From MPEC 2022-ED3
431P/Scotti,e,22.3922,202.8464,199.8563,3.472323,0.1523259,0.47767499,5.1231,03/19.0/2022,2000,g 14.0,4.0
# From MPEC 2021-U31
432P/PANSTARRS,e,10.0692,239.1432,105.2409,3.035622,0.1863513,0.24206121,37.3880,03/19.0/2022,2000,g 17.0,4.0
# From MPEC 2022-ED3
434P/Tenagra,e,6.3397,288.9675,128.0504,4.127814,0.1175233,0.27431603,16.9460,03/19.0/2022,2000,g 13.0,4.0
# From MPEC 2021-W31
435P/PANSTARRS,e,18.8826,98.5498,244.1505,3.018379,0.1879505,0.31872528,44.0811,03/19.0/2022,2000,g 17.0,4.0
# From MPEC 2022-C56
436P/Garradd,e,20.2104,87.1897,282.5960,5.929133,0.0682680,0.66983045,6.8608,03/19.0/2022,2000,g 14.5,4.0
# From MPEC 2021-Y10
437P/PANSTARRS,e,3.6897,245.8689,206.7098,4.558470,0.1012687,0.25409050,344.5647,03/19.0/2022,2000,g 13.0,4.0
# From MPEC 2021-W47
438P/Christensen,e,8.2881,260.1558,58.9408,3.846885,0.1306292,0.41577061,93.0911,03/19.0/2022,2000,g 14.5,4.0
# From MPEC 2022-C56
439P/LINEAR,e,7.1143,56.4172,341.9971,3.487515,0.1513317,0.46946963,31.0075,03/19.0/2022,2000,g 13.5,4.0
# From MPEC 2022-ED3
440P/Kobayashi,e,12.3395,328.8822,183.3197,8.584772,0.0391842,0.76047910,359.5708,03/19.0/2022,2000,g 15.5,4.0
# From MPC107687
1I/`Oumuamua,h,09/09.4886/2017,122.6778,24.5997,241.6845,1.199252,0.255240,2000,23.0,2.0
# From MPEC 2020-K19
2I/Borisov,h,12/08.5549/2019,44.0527,308.1480,209.1251,3.356636,2.006548,2000,11.0,4.0
